ISS OBJECT XW           
1 66910U 98067XW  26062.45772056  .00132206  00000+0  12184-2 0  9995
2 66910  51.6243  97.2785 0004869  51.9689 308.1746 15.66680726 14201
ISS OBJECT XX           
1 66911U 98067XX  26063.18253700  .00282325  00000+0  20053-2 0  9999
2 66911  51.6215  92.3562 0006925  49.2793 310.8806 15.72471487 14320
ISS OBJECT XY           
1 66912U 98067XY  26063.08333605  .00107173  00000+0  11699-2 0  9995
2 66912  51.6268  95.4706 0002906  56.5889 303.5383 15.62516630 14277
ISS OBJECT XZ           
1 67683U 98067XZ  26063.12412783  .00048104  00000+0  80590-3 0  9996
2 67683  51.6304  99.4942 0009483 167.0393 193.0841 15.51316710  3921
GXIBA-1                 
1 67684U 98067YA  26062.26849864  .00074906  00000+0  11656-2 0  9990
2 67684  51.6298 103.5313 0010978 154.9471 205.2054 15.53164734  3792
CORAL                   
1 67685U 98067YB  26063.12087566  .00051311  00000+0  84892-3 0  9998
2 67685  51.6306  99.4725 0011412 163.4615 196.6749 15.51617539  3925
ISS OBJECT YC           
1 67686U 98067YC  26063.11706777  .00065825  00000+0  10702-2 0  9993
2 67686  51.6306  99.4495 0007705 130.8596 229.3063 15.52036952  3924
LEOPARD                 
1 67687U 98067YD  26063.12237470  .00050832  00000+0  84698-3 0  9992
2 67687  51.6307  99.4833 0007776 135.4540 224.7075 15.51460926  3844
ISS OBJECT YE           
1 67688U 98067YE  26062.41037585  .00049325  00000+0  81368-3 0  9995
2 67688  51.6313 102.9800 0007700 129.5648 230.6023 15.51755615  3735
CREW DRAGON 12          
1 67796U 26031A   26063.15679535  .00010207  00000+0  19684-3 0  9995
2 67796  51.6316  99.7104 0008201 155.0339 205.1047 15.48434477555793
