CCSDS_OMM_VERS = 2.0
CREATION_DATE  = 
ORIGINATOR     = 

OBJECT_NAME    = ISS OBJECT XW
OBJECT_ID      = 1998-067XW
CENTER_NAME    = EARTH
REF_FRAME      = TEME
TIME_SYSTEM    = UTC
MEAN_ELEMENT_THEORY = SGP/SGP4

EPOCH          = 2026-03-03T10:59:07.056384
MEAN_MOTION    = 15.66680726
ECCENTRICITY   = .00048698
INCLINATION    = 51.6243
RA_OF_ASC_NODE = 97.2785
ARG_OF_PERICENTER = 51.9689
MEAN_ANOMALY   = 308.1746

EPHEMERIS_TYPE = 0
CLASSIFICATION_TYPE = U
NORAD_CAT_ID   = 66910
ELEMENT_SET_NO = 999
REV_AT_EPOCH   = 1420
BSTAR          = .1218439E-2
MEAN_MOTION_DOT = .132206E-2
MEAN_MOTION_DDOT = 0

CCSDS_OMM_VERS = 2.0
CREATION_DATE  = 
ORIGINATOR     = 

OBJECT_NAME    = ISS OBJECT XX
OBJECT_ID      = 1998-067XX
CENTER_NAME    = EARTH
REF_FRAME      = TEME
TIME_SYSTEM    = UTC
MEAN_ELEMENT_THEORY = SGP/SGP4

EPOCH          = 2026-03-04T04:22:51.196800
MEAN_MOTION    = 15.72471487
ECCENTRICITY   = .0006925
INCLINATION    = 51.6215
RA_OF_ASC_NODE = 92.3562
ARG_OF_PERICENTER = 49.2793
MEAN_ANOMALY   = 310.8806

EPHEMERIS_TYPE = 0
CLASSIFICATION_TYPE = U
NORAD_CAT_ID   = 66911
ELEMENT_SET_NO = 999
REV_AT_EPOCH   = 1432
BSTAR          = .20053E-2
MEAN_MOTION_DOT = .282325E-2
MEAN_MOTION_DDOT = 0

CCSDS_OMM_VERS = 2.0
CREATION_DATE  = 
ORIGINATOR     = 

OBJECT_NAME    = ISS OBJECT XY
OBJECT_ID      = 1998-067XY
CENTER_NAME    = EARTH
REF_FRAME      = TEME
TIME_SYSTEM    = UTC
MEAN_ELEMENT_THEORY = SGP/SGP4

EPOCH          = 2026-03-04T02:00:00.234720
MEAN_MOTION    = 15.62516630
ECCENTRICITY   = .0002906
INCLINATION    = 51.6268
RA_OF_ASC_NODE = 95.4706
ARG_OF_PERICENTER = 56.5889
MEAN_ANOMALY   = 303.5383

EPHEMERIS_TYPE = 0
CLASSIFICATION_TYPE = U
NORAD_CAT_ID   = 66912
ELEMENT_SET_NO = 999
REV_AT_EPOCH   = 1427
BSTAR          = .11699E-2
MEAN_MOTION_DOT = .107173E-2
MEAN_MOTION_DDOT = 0

CCSDS_OMM_VERS = 2.0
CREATION_DATE  = 
ORIGINATOR     = 

OBJECT_NAME    = ISS OBJECT XZ
OBJECT_ID      = 1998-067XZ
CENTER_NAME    = EARTH
REF_FRAME      = TEME
TIME_SYSTEM    = UTC
MEAN_ELEMENT_THEORY = SGP/SGP4

EPOCH          = 2026-03-04T02:58:44.644512
MEAN_MOTION    = 15.51316710
ECCENTRICITY   = .0009483
INCLINATION    = 51.6304
RA_OF_ASC_NODE = 99.4942
ARG_OF_PERICENTER = 167.0393
MEAN_ANOMALY   = 193.0841

EPHEMERIS_TYPE = 0
CLASSIFICATION_TYPE = U
NORAD_CAT_ID   = 67683
ELEMENT_SET_NO = 999
REV_AT_EPOCH   = 392
BSTAR          = .8059E-3
MEAN_MOTION_DOT = .48104E-3
MEAN_MOTION_DDOT = 0

CCSDS_OMM_VERS = 2.0
CREATION_DATE  = 
ORIGINATOR     = 

OBJECT_NAME    = GXIBA-1
OBJECT_ID      = 1998-067YA
CENTER_NAME    = EARTH
REF_FRAME      = TEME
TIME_SYSTEM    = UTC
MEAN_ELEMENT_THEORY = SGP/SGP4

EPOCH          = 2026-03-03T06:26:38.282496
MEAN_MOTION    = 15.53164734
ECCENTRICITY   = .00109781
INCLINATION    = 51.6298
RA_OF_ASC_NODE = 103.5313
ARG_OF_PERICENTER = 154.9471
MEAN_ANOMALY   = 205.2054

EPHEMERIS_TYPE = 0
CLASSIFICATION_TYPE = U
NORAD_CAT_ID   = 67684
ELEMENT_SET_NO = 999
REV_AT_EPOCH   = 379
BSTAR          = .11656143E-2
MEAN_MOTION_DOT = .74906E-3
MEAN_MOTION_DDOT = 0

CCSDS_OMM_VERS = 2.0
CREATION_DATE  = 
ORIGINATOR     = 

OBJECT_NAME    = CORAL
OBJECT_ID      = 1998-067YB
CENTER_NAME    = EARTH
REF_FRAME      = TEME
TIME_SYSTEM    = UTC
MEAN_ELEMENT_THEORY = SGP/SGP4

EPOCH          = 2026-03-04T02:54:03.657024
MEAN_MOTION    = 15.51617539
ECCENTRICITY   = .0011412
INCLINATION    = 51.6306
RA_OF_ASC_NODE = 99.4725
ARG_OF_PERICENTER = 163.4615
MEAN_ANOMALY   = 196.6749

EPHEMERIS_TYPE = 0
CLASSIFICATION_TYPE = U
NORAD_CAT_ID   = 67685
ELEMENT_SET_NO = 999
REV_AT_EPOCH   = 392
BSTAR          = .84892E-3
MEAN_MOTION_DOT = .51311E-3
MEAN_MOTION_DDOT = 0

CCSDS_OMM_VERS = 2.0
CREATION_DATE  = 
ORIGINATOR     = 

OBJECT_NAME    = ISS OBJECT YC
OBJECT_ID      = 1998-067YC
CENTER_NAME    = EARTH
REF_FRAME      = TEME
TIME_SYSTEM    = UTC
MEAN_ELEMENT_THEORY = SGP/SGP4

EPOCH          = 2026-03-04T02:48:34.655328
MEAN_MOTION    = 15.52036952
ECCENTRICITY   = .0007705
INCLINATION    = 51.6306
RA_OF_ASC_NODE = 99.4495
ARG_OF_PERICENTER = 130.8596
MEAN_ANOMALY   = 229.3063

EPHEMERIS_TYPE = 0
CLASSIFICATION_TYPE = U
NORAD_CAT_ID   = 67686
ELEMENT_SET_NO = 999
REV_AT_EPOCH   = 392
BSTAR          = .10702E-2
MEAN_MOTION_DOT = .65825E-3
MEAN_MOTION_DDOT = 0

CCSDS_OMM_VERS = 2.0
CREATION_DATE  = 
ORIGINATOR     = 

OBJECT_NAME    = LEOPARD
OBJECT_ID      = 1998-067YD
CENTER_NAME    = EARTH
REF_FRAME      = TEME
TIME_SYSTEM    = UTC
MEAN_ELEMENT_THEORY = SGP/SGP4

EPOCH          = 2026-03-04T02:56:13.174080
MEAN_MOTION    = 15.51460926
ECCENTRICITY   = .0007776
INCLINATION    = 51.6307
RA_OF_ASC_NODE = 99.4833
ARG_OF_PERICENTER = 135.4540
MEAN_ANOMALY   = 224.7075

EPHEMERIS_TYPE = 0
CLASSIFICATION_TYPE = U
NORAD_CAT_ID   = 67687
ELEMENT_SET_NO = 999
REV_AT_EPOCH   = 384
BSTAR          = .84698E-3
MEAN_MOTION_DOT = .50832E-3
MEAN_MOTION_DDOT = 0

CCSDS_OMM_VERS = 2.0
CREATION_DATE  = 
ORIGINATOR     = 

OBJECT_NAME    = ISS OBJECT YE
OBJECT_ID      = 1998-067YE
CENTER_NAME    = EARTH
REF_FRAME      = TEME
TIME_SYSTEM    = UTC
MEAN_ELEMENT_THEORY = SGP/SGP4

EPOCH          = 2026-03-03T09:50:56.473440
MEAN_MOTION    = 15.51755615
ECCENTRICITY   = .00077001
INCLINATION    = 51.6313
RA_OF_ASC_NODE = 102.9800
ARG_OF_PERICENTER = 129.5648
MEAN_ANOMALY   = 230.6023

EPHEMERIS_TYPE = 0
CLASSIFICATION_TYPE = U
NORAD_CAT_ID   = 67688
ELEMENT_SET_NO = 999
REV_AT_EPOCH   = 373
BSTAR          = .81367548E-3
MEAN_MOTION_DOT = .49325E-3
MEAN_MOTION_DDOT = 0

CCSDS_OMM_VERS = 2.0
CREATION_DATE  = 
ORIGINATOR     = 

OBJECT_NAME    = CREW DRAGON 12
OBJECT_ID      = 2026-031A
CENTER_NAME    = EARTH
REF_FRAME      = TEME
TIME_SYSTEM    = UTC
MEAN_ELEMENT_THEORY = SGP/SGP4

EPOCH          = 2026-03-04T03:45:47.118240
MEAN_MOTION    = 15.48434477
ECCENTRICITY   = .0008201
INCLINATION    = 51.6316
RA_OF_ASC_NODE = 99.7104
ARG_OF_PERICENTER = 155.0339
MEAN_ANOMALY   = 205.1047

EPHEMERIS_TYPE = 0
CLASSIFICATION_TYPE = U
NORAD_CAT_ID   = 67796
ELEMENT_SET_NO = 999
REV_AT_EPOCH   = 55579
BSTAR          = .19684E-3
MEAN_MOTION_DOT = .10207E-3
MEAN_MOTION_DDOT = 0

